{"type": "FeatureCollection", "features": [ {"type": "Feature", "properties": {"norad_id": 60989, "name": "SENTINEL-2C", "group": "resource", "lat": 33.116602535703564, "lon": 66.9551209325481, "alt_km": 786.5548023092215, "timestamp": "2025-12-26T07:29:18.117671+00:00", "meta": {"OBJECT_NAME": "SENTINEL-2C", "OBJECT_ID": "2024-157A", "EPOCH": "2025-12-25T19:35:01.945536", "MEAN_MOTION": 14.30817849, "ECCENTRICITY": 0.00013862, "INCLINATION": 98.5666, "RA_OF_ASC_NODE": 72.1092, "ARG_OF_PERICENTER": 102.9981, "MEAN_ANOMALY": 257.1356, "EPHEMERIS_TYPE": 0, "CLASSIFICATION_TYPE": "U", "NORAD_CAT_ID": 60989, "ELEMENT_SET_NO": 999, "REV_AT_EPOCH": 6819, "BSTAR": 0.00010095972, "MEAN_MOTION_DOT": 2.21e-06, "MEAN_MOTION_DDOT": 0}, "tle": {"line1": "1 60989U 24157A   25359.81599474  .00000221  00000+0  10096-3 0  9995", "line2": "2 60989  98.5666  72.1092 0001386 102.9981 257.1356 14.30817849 68191"}}, "geometry": {"type": "Point", "coordinates": [66.9551209325481, 33.116602535703564]}}, {"type": "Feature", "properties": {"norad_id": 61735, "name": "IONOSFERA-M 1", "group": "resource", "lat": -79.85668031710158, "lon": -9.240476051278211, "alt_km": 823.5355802570248, "timestamp": "2025-12-26T07:29:18.117684+00:00", "meta": {"OBJECT_NAME": "IONOSFERA-M 1", "OBJECT_ID": "2024-199A", "EPOCH": "2025-12-25T23:29:44.824992", "MEAN_MOTION": 14.22716908, "ECCENTRICITY": 3.005e-05, "INCLINATION": 98.7396, "RA_OF_ASC_NODE": 229.725, "ARG_OF_PERICENTER": 4.5867, "MEAN_ANOMALY": 355.5314, "EPHEMERIS_TYPE": 0, "CLASSIFICATION_TYPE": "U", "NORAD_CAT_ID": 61735, "ELEMENT_SET_NO": 999, "REV_AT_EPOCH": 10307, "BSTAR": 4.4050167e-05, "MEAN_MOTION_DOT": 5.4e-07, "MEAN_MOTION_DDOT": 0}, "tle": {"line1": "1 61735U 24199A   25359.97899103  .00000054  00000+0  44050-4 0  9992", "line2": "2 61735  98.7396 229.7250 0000300   4.5867 355.5314 14.22716908103073"}}, "geometry": {"type": "Point", "coordinates": [-9.240476051278211, -79.85668031710158]}}, {"type": "Feature", "properties": {"norad_id": 61736, "name": "IONOSFERA-M 2", "group": "resource", "lat": 80.93307958612392, "lon": 155.4064412871657, "alt_km": 807.3799057053648, "timestamp": "2025-12-26T07:29:18.117694+00:00", "meta": {"OBJECT_NAME": "IONOSFERA-M 2", "OBJECT_ID": "2024-199B", "EPOCH": "2025-12-25T22:38:20.326848", "MEAN_MOTION": 14.22719059, "ECCENTRICITY": 0.00018705, "INCLINATION": 98.7394, "RA_OF_ASC_NODE": 229.602, "ARG_OF_PERICENTER": 93.5602, "MEAN_ANOMALY": 266.579, "EPHEMERIS_TYPE": 0, "CLASSIFICATION_TYPE": "U", "NORAD_CAT_ID": 61736, "ELEMENT_SET_NO": 999, "REV_AT_EPOCH": 10619, "BSTAR": 4.6735527e-05, "MEAN_MOTION_DOT": 6e-07, "MEAN_MOTION_DDOT": 0}, "tle": {"line1": "1 61736U 24199B   25359.94329082  .00000060  00000+0  46736-4 0  9994", "line2": "2 61736  98.7394 229.6020 0001870  93.5602 266.5790 14.22719059106199"}}, "geometry": {"type": "Point", "coordinates": [155.4064412871657, 80.93307958612392]}}, {"type": "Feature", "properties": {"norad_id": 63772, "name": "BIOMASS", "group": "resource", "lat": -53.3328625381962, "lon": -163.89093880822858, "alt_km": 676.4502327249429, "timestamp": "2025-12-26T07:29:18.117704+00:00", "meta": {"OBJECT_NAME": "BIOMASS", "OBJECT_ID": "2025-090A", "EPOCH": "2025-12-25T12:05:53.117664", "MEAN_MOTION": 14.67538757, "ECCENTRICITY": 0.0001045, "INCLINATION": 98.0694, "RA_OF_ASC_NODE": 184.3277, "ARG_OF_PERICENTER": 84.0094, "MEAN_ANOMALY": 276.1229, "EPHEMERIS_TYPE": 0, "CLASSIFICATION_TYPE": "U", "NORAD_CAT_ID": 63772, "ELEMENT_SET_NO": 999, "REV_AT_EPOCH": 3521, "BSTAR": 0.00023361, "MEAN_MOTION_DOT": 1.277e-05, "MEAN_MOTION_DDOT": 0}, "tle": {"line1": "1 63772U 25090A   25359.50408701  .00001277  00000+0  23361-3 0  9994", "line2": "2 63772  98.0694 184.3277 0001045  84.0094 276.1229 14.67538757 35213"}}, "geometry": {"type": "Point", "coordinates": [-163.89093880822858, -53.3328625381962]}}, {"type": "Feature", "properties": {"norad_id": 64694, "name": "GOSAT-GW (IBUKI GW)", "group": "resource", "lat": 22.91508153552913, "lon": 119.00711370414955, "alt_km": 668.2287927809984, "timestamp": "2025-12-26T07:29:18.117714+00:00", "meta": {"OBJECT_NAME": "GOSAT-GW (IBUKI GW)", "OBJECT_ID": "2025-141A", "EPOCH": "2025-12-25T22:35:41.590176", "MEAN_MOTION": 14.67561138, "ECCENTRICITY": 0.00014267, "INCLINATION": 98.044, "RA_OF_ASC_NODE": 295.216, "ARG_OF_PERICENTER": 82.1724, "MEAN_ANOMALY": 277.9643, "EPHEMERIS_TYPE": 0, "CLASSIFICATION_TYPE": "U", "NORAD_CAT_ID": 64694, "ELEMENT_SET_NO": 999, "REV_AT_EPOCH": 2643, "BSTAR": 0.00018724095, "MEAN_MOTION_DOT": 1.015e-05, "MEAN_MOTION_DDOT": 0}, "tle": {"line1": "1 64694U 25141A   25359.94145359  .00001015  00000+0  18724-3 0  9997", "line2": "2 64694  98.0440 295.2160 0001426  82.1724 277.9643 14.67561138 26433"}}, "geometry": {"type": "Point", "coordinates": [119.00711370414955, 22.91508153552913]}}, {"type": "Feature", "properties": {"norad_id": 64876, "name": "IONOSFERA-M 3", "group": "resource", "lat": 67.78163365243573, "lon": -59.896894853371904, "alt_km": 812.7409669772169, "timestamp": "2025-12-26T07:29:18.117724+00:00", "meta": {"OBJECT_NAME": "IONOSFERA-M 3", "OBJECT_ID": "2025-155A", "EPOCH": "2025-12-25T22:42:58.101984", "MEAN_MOTION": 14.2144418, "ECCENTRICITY": 0.00018133, "INCLINATION": 98.5801, "RA_OF_ASC_NODE": 321.44, "ARG_OF_PERICENTER": 38.6702, "MEAN_ANOMALY": 321.4605, "EPHEMERIS_TYPE": 0, "CLASSIFICATION_TYPE": "U", "NORAD_CAT_ID": 64876, "ELEMENT_SET_NO": 999, "REV_AT_EPOCH": 2179, "BSTAR": 5.8658679e-05, "MEAN_MOTION_DOT": 8.6e-07, "MEAN_MOTION_DDOT": 0}, "tle": {"line1": "1 64876U 25155A   25359.94650581  .00000086  00000+0  58659-4 0  9991", "line2": "2 64876  98.5801 321.4400 0001813  38.6702 321.4605 14.21444180 21796"}}, "geometry": {"type": "Point", "coordinates": [-59.896894853371904, 67.78163365243573]}}, {"type": "Feature", "properties": {"norad_id": 64877, "name": "IONOSFERA-M 4", "group": "resource", "lat": -68.49403672465186, "lon": 119.18470259940668, "alt_km": 828.5560657131591, "timestamp": "2025-12-26T07:29:18.117734+00:00", "meta": {"OBJECT_NAME": "IONOSFERA-M 4", "OBJECT_ID": "2025-155B", "EPOCH": "2025-12-25T23:33:26.945568", "MEAN_MOTION": 14.21445327, "ECCENTRICITY": 0.00012524, "INCLINATION": 98.5802, "RA_OF_ASC_NODE": 321.3934, "ARG_OF_PERICENTER": 51.1171, "MEAN_ANOMALY": 309.0119, "EPHEMERIS_TYPE": 0, "CLASSIFICATION_TYPE": "U", "NORAD_CAT_ID": 64877, "ELEMENT_SET_NO": 999, "REV_AT_EPOCH": 2179, "BSTAR": 6.0358025e-05, "MEAN_MOTION_DOT": 8.9e-07, "MEAN_MOTION_DDOT": 0}, "tle": {"line1": "1 64877U 25155B   25359.98156187  .00000089  00000+0  60358-4 0  9991", "line2": "2 64877  98.5802 321.3934 0001252  51.1171 309.0119 14.21445327 21792"}}, "geometry": {"type": "Point", "coordinates": [119.18470259940668, -68.49403672465186]}}, {"type": "Feature", "properties": {"norad_id": 64899, "name": "MICROCARB", "group": "resource", "lat": -6.031810835746076, "lon": 76.29053035431299, "alt_km": 662.4200711530302, "timestamp": "2025-12-26T07:29:18.117744+00:00", "meta": {"OBJECT_NAME": "MICROCARB", "OBJECT_ID": "2025-156A", "EPOCH": "2025-12-25T16:50:02.395104", "MEAN_MOTION": 14.72077609, "ECCENTRICITY": 0.001765, "INCLINATION": 98.001, "RA_OF_ASC_NODE": 74.8383, "ARG_OF_PERICENTER": 105.9485, "MEAN_ANOMALY": 254.3669, "EPHEMERIS_TYPE": 0, "CLASSIFICATION_TYPE": "U", "NORAD_CAT_ID": 64899, "ELEMENT_SET_NO": 999, "REV_AT_EPOCH": 2244, "BSTAR": 0.00012739997, "MEAN_MOTION_DOT": 7.53e-06, "MEAN_MOTION_DDOT": 0}, "tle": {"line1": "1 64899U 25156A   25359.70141661  .00000753  00000+0  12740-3 0  9996", "line2": "2 64899  98.0010  74.8383 0017650 105.9485 254.3669 14.72077609 22440"}}, "geometry": {"type": "Point", "coordinates": [76.29053035431299, -6.031810835746076]}}, {"type": "Feature", "properties": {"norad_id": 64900, "name": "CO3D 3", "group": "resource", "lat": -43.126718178228955, "lon": -110.5405707306954, "alt_km": 512.848780049012, "timestamp": "2025-12-26T07:29:18.117754+00:00", "meta": {"OBJECT_NAME": "CO3D 3", "OBJECT_ID": "2025-156B", "EPOCH": "2025-12-25T22:36:34.293312", "MEAN_MOTION": 15.20196953, "ECCENTRICITY": 0.00013706, "INCLINATION": 97.4344, "RA_OF_ASC_NODE": 76.1201, "ARG_OF_PERICENTER": 64.0892, "MEAN_ANOMALY": 296.0484, "EPHEMERIS_TYPE": 0, "CLASSIFICATION_TYPE": "U", "NORAD_CAT_ID": 64900, "ELEMENT_SET_NO": 999, "REV_AT_EPOCH": 2321, "BSTAR": 1.9145925e-05, "MEAN_MOTION_DOT": 3.47e-06, "MEAN_MOTION_DDOT": 0}, "tle": {"line1": "1 64900U 25156B   25359.94206358  .00000347  00000+0  19146-4 0  9997", "line2": "2 64900  97.4344  76.1201 0001370  64.0892 296.0484 15.20196953 23211"}}, "geometry": {"type": "Point", "coordinates": [-110.5405707306954, -43.126718178228955]}}, {"type": "Feature", "properties": {"norad_id": 64901, "name": "CO3D 4", "group": "resource", "lat": -42.2904286211339, "lon": -110.33657687550502, "alt_km": 511.6805763562943, "timestamp": "2025-12-26T07:29:18.117764+00:00", "meta": {"OBJECT_NAME": "CO3D 4", "OBJECT_ID": "2025-156C", "EPOCH": "2025-12-25T22:36:47.670624", "MEAN_MOTION": 15.20189592, "ECCENTRICITY": 0.00013511, "INCLINATION": 97.4336, "RA_OF_ASC_NODE": 76.1198, "ARG_OF_PERICENTER": 149.8604, "MEAN_ANOMALY": 210.2709, "EPHEMERIS_TYPE": 0, "CLASSIFICATION_TYPE": "U", "NORAD_CAT_ID": 64901, "ELEMENT_SET_NO": 999, "REV_AT_EPOCH": 2321, "BSTAR": 0.00023388941, "MEAN_MOTION_DOT": 4.997e-05, "MEAN_MOTION_DDOT": 0}, "tle": {"line1": "1 64901U 25156C   25359.94221841  .00004997  00000+0  23389-3 0  9990", "line2": "2 64901  97.4336  76.1198 0001351 149.8604 210.2709 15.20189592 23219"}}, "geometry": {"type": "Point", "coordinates": [-110.33657687550502, -42.2904286211339]}}]}